{
  "norad_id": 37846,
  "name": "GSAT0101 (GALILEO-PFM)",
  "history": [
    {
      "epoch": "2026-03-27T07:30:55.432512",
      "apogee_km": 23234.180556722793,
      "perigee_km": 23209.804258153177,
      "latitude_deg": 16.066207718184838,
      "longitude_deg": 58.66159168025479,
      "semi_major_axis_km": 29600.129407437984,
      "eccentricity": 0.00041176,
      "inclination_deg": 57.0197,
      "raan_deg": 343.984,
      "arg_perigee_deg": 13.547,
      "mean_anomaly_deg": 346.4977,
      "mean_motion_rev_day": 1.70475647
    }
  ]
}